NORAD_CAT_ID,OBJECT_NAME,OBJECT_TYPE,EPOCH,MEAN_MOTION,ECCENTRICITY,INCLINATION,RA_OF_ASC_NODE,ARG_OF_PERICENTER,MEAN_ANOMALY,BSTAR,MEAN_MOTION_DOT,MEAN_MOTION_DDOT,TLE_LINE0,TLE_LINE1,TLE_LINE2,SEMIMAJOR_AXIS,PERIOD,APOGEE,PERIGEE,DECAYED
53724.0,STARLINK-4663,PAYLOAD,2023-08-30 19:23:21,15.08841409,0.0001302,53.2166,72.4033,81.9716,278.1424,6.1708e-05,6.94e-06,0.0,0 STARLINK-4663,1 53724U 22107AA  23242.80788278  .00000694  00000-0  61708-4 0  9999,2 53724  53.2166  72.4033 0001302  81.9716 278.1424 15.08841409 55247,6917.876,95.437,540.642,538.84,0.0
53724.0,STARLINK-4663,PAYLOAD,2023-08-31 20:49:31,15.08839702,9.21e-05,53.2167,67.6472,66.7349,293.374,8.0786e-06,-1.59e-06,0.0,0 STARLINK-4663,1 53724U 22107AA  23243.86772595 -.00000159  00000-0  80786-5 0  9996,2 53724  53.2167  67.6472 0000921  66.7349 293.3740 15.08839702 55401,6917.881,95.438,540.383,539.109,0.0
53724.0,STARLINK-4663,PAYLOAD,2023-08-31 22:24:55,15.08825761,6.35e-05,53.2161,67.3502,98.4314,261.675,-0.00012081,-2.209e-05,0.0,0 STARLINK-4663,1 53724U 22107AA  23243.93397504 -.00002209  00000-0 -12081-3 0  9997,2 53724  53.2161  67.3502 0000635  98.4314 261.6750 15.08825761 54950,6917.924,95.438,540.228,539.35,0.0
53724.0,STARLINK-4663,PAYLOAD,2023-09-01 12:43:24,15.08724286,8.11e-05,53.2171,64.6783,254.7614,105.3288,0.0016603,0.00026151,0.0,0 STARLINK-4663,1 53724U 22107AA  23244.53014936  .00026151  00000-0  16603-2 0  9992,2 53724  53.2171  64.6783 0000811 254.7614 105.3288 15.08724286 55049,6918.234,95.445,540.66,539.538,0.0
53724.0,STARLINK-4663,PAYLOAD,2023-09-01 19:04:57,15.08824252,0.0001427,53.2183,63.4817,94.3897,265.7258,-3.3316e-05,-8.18e-06,0.0,0 STARLINK-4663,1 53724U 22107AA  23244.79510637 -.00000818  00000-0 -33316-4 0  9995,2 53724  53.2183  63.4817 0001427  94.3897 265.7258 15.08824252 55088,6917.929,95.439,540.781,538.806,0.0
53724.0,STARLINK-4663,PAYLOAD,2023-09-02 12:34:11,15.08821962,9.79e-05,53.2175,60.2099,87.8103,272.3001,0.00025786,3.816e-05,0.0,0 STARLINK-4663,1 53724U 22107AA  23245.52374310  .00003816  00000-0  25786-3 0  9993,2 53724  53.2175  60.2099 0000979  87.8103 272.3001 15.08821962 55652,6917.936,95.439,540.478,539.123,0.0
53724.0,STARLINK-4663,PAYLOAD,2023-09-02 18:55:43,15.0883285,9.5e-05,53.2172,59.0211,93.7426,266.3675,0.00035815,5.416e-05,0.0,0 STARLINK-4663,1 53724U 22107AA  23245.78869860  .00005416  00000-0  35815-3 0  9992,2 53724  53.2172  59.0211 0000950  93.7426 266.3675 15.08832850 55236,6917.902,95.438,540.424,539.11,0.0
53724.0,STARLINK-4663,PAYLOAD,2023-09-03 04:28:02,15.08842556,9.78e-05,53.2175,57.2368,92.0011,268.1094,0.00042362,6.461e-05,0.0,0 STARLINK-4663,1 53724U 22107AA  23246.18613687  .00006461  00000-0  42362-3 0  9997,2 53724  53.2175  57.2368 0000978  92.0011 268.1094 15.08842556 55750,6917.873,95.437,540.414,539.061,0.0
53724.0,STARLINK-4663,PAYLOAD,2023-09-03 18:46:29,15.08861304,9.78e-05,53.217,54.56,90.6275,269.4829,0.00044146,6.749e-05,0.0,0 STARLINK-4663,1 53724U 22107AA  23246.78229008  .00006749  00000-0  44146-3 0  9994,2 53724  53.2170  54.5600 0000978  90.6275 269.4829 15.08861304 55381,6917.815,95.436,540.357,539.004,0.0
53724.0,STARLINK-4663,PAYLOAD,2023-09-04 10:40:21,15.08845653,0.0001292,53.2165,51.5862,91.4917,268.6223,3.5309e-05,2.74e-06,0.0,0 STARLINK-4663,1 53724U 22107AA  23247.44469392  .00000274  00000-0  35309-4 0  9999,2 53724  53.2165  51.5862 0001292  91.4917 268.6223 15.08845653 55483,6917.863,95.437,540.622,538.834,0.0
53724.0,STARLINK-4663,PAYLOAD,2023-09-05 04:09:35,15.08844659,9.45e-05,53.2163,48.3149,95.2942,264.8158,-7.8903e-05,-1.543e-05,0.0,0 STARLINK-4663,1 53724U 22107AA  23248.17333073 -.00001543  00000-0 -78903-4 0  9995,2 53724  53.2163  48.3149 0000945  95.2942 264.8158 15.08844659 56051,6917.866,95.437,540.385,539.077,0.0
53724.0,STARLINK-4663,PAYLOAD,2023-09-05 18:28:03,15.0887415,0.0001005,53.2171,45.6393,86.5474,273.5634,-0.00032612,-5.479e-05,0.0,0 STARLINK-4663,1 53724U 22107AA  23248.76948328 -.00005479  00000-0 -32612-3 0  9993,2 53724  53.2171  45.6393 0001005  86.5474 273.5634 15.08874150 55685,6917.776,95.435,540.336,538.946,0.0
53724.0,STARLINK-4663,PAYLOAD,2023-09-06 04:00:21,15.08861586,8.7e-05,53.217,43.8547,112.4425,247.6659,-0.00015744,-2.794e-05,0.0,0 STARLINK-4663,1 53724U 22107AA  23249.16692078 -.00002794  00000-0 -15744-3 0  9990,2 53724  53.2170  43.8547 0000870 112.4425 247.6659 15.08861586 55744,6917.814,95.436,540.281,539.078,0.0
53724.0,STARLINK-4663,PAYLOAD,2023-09-06 19:54:13,15.08847821,9.99e-05,53.2175,40.881,97.4736,262.637,0.00017683,2.528e-05,0.0,0 STARLINK-4663,1 53724U 22107AA  23249.82932585  .00002528  00000-0  17683-3 0  9990,2 53724  53.2175  40.8810 0000999  97.4736 262.6370 15.08847821 56304,6917.856,95.437,540.413,539.03,0.0
53724.0,STARLINK-4663,PAYLOAD,2023-09-07 18:09:38,15.08841237,0.0001015,53.2178,36.7172,95.04,265.0708,3.6256e-05,2.89e-06,0.0,0 STARLINK-4663,1 53724U 22107AA  23250.75669068  .00000289  00000-0  36256-4 0  9997,2 53724  53.2178  36.7172 0001015  95.0400 265.0708 15.08841237 56446,6917.877,95.437,540.444,539.039,0.0
53724.0,STARLINK-4663,PAYLOAD,2023-09-08 13:14:15,15.08840432,0.0001073,53.2187,33.1484,100.2346,259.8767,1.768e-05,-6e-08,0.0,0 STARLINK-4663,1 53724U 22107AA  23251.55157306 -.00000006  00000-0  17680-4 0  9991,2 53724  53.2187  33.1484 0001073 100.2346 259.8767 15.08840432 56560,6917.879,95.438,540.486,539.002,0.0
53724.0,STARLINK-4663,PAYLOAD,2023-09-08 18:00:25,15.08841515,0.0001017,53.2194,32.2577,78.5002,281.6104,8.0009e-05,9.86e-06,0.0,0 STARLINK-4663,1 53724U 22107AA  23251.75029081  .00000986  00000-0  80009-4 0  9992,2 53724  53.2194  32.2577 0001017  78.5002 281.6104 15.08841515 56599,6917.876,95.437,540.444,539.037,0.0
53724.0,STARLINK-4663,PAYLOAD,2023-09-09 09:54:17,15.0883046,0.0001039,53.2193,29.2853,81.7203,278.3907,5.9005e-05,6.51e-06,0.0,0 STARLINK-4663,1 53724U 22107AA  23252.41269945  .00000651  00000-0  59005-4 0  9992,2 53724  53.2193  29.2853 0001039  81.7203 278.3907 15.08830460 56236,6917.91,95.438,540.493,539.056,0.0
53724.0,STARLINK-4663,PAYLOAD,2023-09-09 13:05:03,15.08824761,0.0001071,53.2193,28.6908,80.0802,280.0311,0.00015826,2.231e-05,0.0,0 STARLINK-4663,1 53724U 22107AA  23252.54517995  .00002231  00000-0  15826-3 0  9995,2 53724  53.2193  28.6908 0001071  80.0802 280.0311 15.08824761 56712,6917.927,95.439,540.533,539.051,0.0
53724.0,STARLINK-4663,PAYLOAD,2023-09-10 09:45:04,15.08837015,0.0001138,53.2192,24.8249,98.2882,261.8239,0.0001184,1.597e-05,0.0,0 STARLINK-4663,1 53724U 22107AA  23253.40629714  .00001597  00000-0  11840-3 0  9990,2 53724  53.2192  24.8249 0001138  98.2882 261.8239 15.08837015 56385,6917.89,95.438,540.542,538.967,0.0
53724.0,STARLINK-4663,PAYLOAD,2023-09-10 12:55:50,15.08844292,0.000107,53.2194,24.2304,86.9894,273.1221,9.6215e-05,1.244e-05,0.0,0 STARLINK-4663,1 53724U 22107AA  23253.53877393  .00001244  00000-0  96215-4 0  9991,2 53724  53.2194  24.2304 0001070  86.9894 273.1221 15.08844292 56860,6917.867,95.437,540.472,538.992,0.0
53724.0,STARLINK-4663,PAYLOAD,2023-09-10 16:06:35,15.08848895,0.0001083,53.22,23.6366,77.7732,282.3382,0.00016484,2.337e-05,0.0,0 STARLINK-4663,1 53724U 22107AA  23253.67124995  .00002337  00000-0  16484-3 0  9992,2 53724  53.2200  23.6366 0001083  77.7732 282.3382 15.08848895 56427,6917.853,95.437,540.467,538.969,0.0
53724.0,STARLINK-4663,PAYLOAD,2023-09-11 14:22:00,15.08837069,0.0001177,53.2197,19.4738,86.8967,273.216,6.6716e-05,7.74e-06,0.0,0 STARLINK-4663,1 53724U 22107AA  23254.59862125  .00000774  00000-0  66716-4 0  9995,2 53724  53.2197  19.4738 0001177  86.8967 273.2160 15.08837069 57024,6917.889,95.438,540.569,538.94,0.0
53724.0,STARLINK-4663,PAYLOAD,2023-09-11 17:32:46,15.08846063,0.0001142,53.2198,18.8786,85.4949,274.6174,0.00013299,1.83e-05,0.0,0 STARLINK-4663,1 53724U 22107AA  23254.73109395  .00001830  00000-0  13299-3 0  9995,2 53724  53.2198  18.8786 0001142  85.4949 274.6174 15.08846063 56582,6917.862,95.437,540.517,538.937,0.0
53724.0,STARLINK-4663,PAYLOAD,2023-09-12 12:37:23,15.08853887,0.0001111,53.2196,15.3104,86.8283,273.2836,9.7947e-05,1.272e-05,0.0,0 STARLINK-4663,1 53724U 22107AA  23255.52596858  .00001272  00000-0  97947-4 0  9990,2 53724  53.2196  15.3104 0001111  86.8283 273.2836 15.08853887 57165,6917.838,95.437,540.472,538.934,0.0
53724.0,STARLINK-4663,PAYLOAD,2023-09-12 15:48:09,15.08857371,0.0001202,53.2187,14.7149,84.5743,275.5387,0.00019389,2.801e-05,0.0,0 STARLINK-4663,1 53724U 22107AA  23255.65844459  .00002801  00000-0  19389-3 0  9999,2 53724  53.2187  14.7149 0001202  84.5743 275.5387 15.08857371 57184,6917.827,95.436,540.524,538.861,0.0
53724.0,STARLINK-4663,PAYLOAD,2023-09-13 07:42:01,15.08849592,0.0001216,53.2184,11.7427,80.0801,280.0329,0.00013433,1.851e-05,0.0,0 STARLINK-4663,1 53724U 22107AA  23256.32084891  .00001851  00000-0  13433-3 0  9998,2 53724  53.2184  11.7427 0001216  80.0801 280.0329 15.08849592 56821,6917.851,95.437,540.557,538.875,0.0
53724.0,STARLINK-4663,PAYLOAD,2023-09-13 12:28:10,15.08850641,0.0001241,53.2183,10.8503,83.0921,277.0213,0.00014296,1.989e-05,0.0,0 STARLINK-4663,1 53724U 22107AA  23256.51956740  .00001989  00000-0  14296-3 0  9990,2 53724  53.2183  10.8503 0001241  83.0921 277.0213 15.08850641 57319,6917.848,95.437,540.571,538.854,0.0
53724.0,STARLINK-4663,PAYLOAD,2023-09-13 18:49:42,15.0886348,0.0001098,53.2182,9.6596,95.4085,264.7032,0.00040505,6.168e-05,0.0,0 STARLINK-4663,1 53724U 22107AA  23256.78451996  .00006168  00000-0  40505-3 0  9998,2 53724  53.2182   9.6596 0001098  95.4085 264.7032 15.08863480 57355,6917.809,95.436,540.433,538.914,0.0
53724.0,STARLINK-4663,PAYLOAD,2023-09-14 10:43:34,15.08835767,0.0001268,53.2185,6.6864,92.1199,267.9939,-3.0725e-05,-7.77e-06,0.0,0 STARLINK-4663,1 53724U 22107AA  23257.44693125 -.00000777  00000-0 -30725-4 0  9990,2 53724  53.2185   6.6864 0001268  92.1199 267.9939 15.08835767 56999,6917.893,95.438,540.636,538.881,0.0
